{
  "norad_id": 46818,
  "name": "CE-SAT IIB",
  "history": [
    {
      "epoch": "2026-04-16T02:00:25.917120Z",
      "apogee_km": 317.9178708020072,
      "perigee_km": 315.53302690047803,
      "latitude_deg": -2.5644287024023087e-05,
      "longitude_deg": -49.34471746007389,
      "height_km": 319.6122344347074,
      "semi_major_axis_km": 6694.862448851242,
      "eccentricity": 0.00017811,
      "inclination_deg": 97.2075,
      "raan_deg": 184.9997,
      "arg_perigee_deg": 75.7322,
      "mean_anomaly_deg": 284.4146,
      "mean_motion_rev_day": 15.848577
    },
    {
      "epoch": "2026-04-17T23:27:51.960672Z",
      "apogee_km": 317.07906752656436,
      "perigee_km": 314.96384733718514,
      "latitude_deg": -2.438119608899668e-05,
      "longitude_deg": -11.074891832997245,
      "height_km": 318.92421896560853,
      "semi_major_axis_km": 6694.158457431875,
      "eccentricity": 0.00015799,
      "inclination_deg": 97.2059,
      "raan_deg": 186.9949,
      "arg_perigee_deg": 74.725,
      "mean_anomaly_deg": 285.4195,
      "mean_motion_rev_day": 15.85107714
    },
    {
      "epoch": "2026-04-18T20:40:30.207072Z",
      "apogee_km": 316.5961990519272,
      "perigee_km": 314.49973691995456,
      "latitude_deg": 2.6209480851741023e-05,
      "longitude_deg": 30.82575245085079,
      "height_km": 318.4128654931001,
      "semi_major_axis_km": 6693.684967985941,
      "eccentricity": 0.0001566,
      "inclination_deg": 97.2052,
      "raan_deg": 187.926,
      "arg_perigee_deg": 72.4102,
      "mean_anomaly_deg": 287.734,
      "mean_motion_rev_day": 15.85275905
    },
    {
      "epoch": "2026-04-19T20:54:46.270368Z",
      "apogee_km": 315.90952058092626,
      "perigee_km": 314.02474245749,
      "latitude_deg": -3.369592863264083e-05,
      "longitude_deg": 27.32771759909522,
      "height_km": 317.85979652788075,
      "semi_major_axis_km": 6693.104131519208,
      "eccentricity": 0.0001408,
      "inclination_deg": 97.2046,
      "raan_deg": 188.9903,
      "arg_perigee_deg": 72.1049,
      "mean_anomaly_deg": 288.0375,
      "mean_motion_rev_day": 15.85482268
    },
    {
      "epoch": "2026-04-19T20:54:46.271232Z",
      "apogee_km": 315.90965444300855,
      "perigee_km": 314.0246085954077,
      "latitude_deg": -3.587298898716937e-05,
      "longitude_deg": 27.327714262887984,
      "height_km": 317.85975538607084,
      "semi_major_axis_km": 6693.104131519208,
      "eccentricity": 0.00014082,
      "inclination_deg": 97.2046,
      "raan_deg": 188.9903,
      "arg_perigee_deg": 72.1049,
      "mean_anomaly_deg": 288.0375,
      "mean_motion_rev_day": 15.85482268
    },
    {
      "epoch": "2026-04-21T18:21:02.644416Z",
      "apogee_km": 314.5771165145561,
      "perigee_km": 313.21997170621125,
      "latitude_deg": 4.4049569980243726e-05,
      "longitude_deg": 65.8890107583203,
      "height_km": 316.7227912924978,
      "semi_major_axis_km": 6692.035544110384,
      "eccentricity": 0.0001014,
      "inclination_deg": 97.2051,
      "raan_deg": 190.9859,
      "arg_perigee_deg": 58.0347,
      "mean_anomaly_deg": 302.1023,
      "mean_motion_rev_day": 15.85862039
    },
    {
      "epoch": "2026-04-22T20:05:35.885760Z",
      "apogee_km": 313.6281494456689,
      "perigee_km": 312.7382038621745,
      "latitude_deg": -2.6568033526128024e-05,
      "longitude_deg": 39.824601722809845,
      "height_km": 316.09415936439825,
      "semi_major_axis_km": 6691.320176653921,
      "eccentricity": 6.65e-05,
      "inclination_deg": 97.2054,
      "raan_deg": 192.1172,
      "arg_perigee_deg": 52.091,
      "mean_anomaly_deg": 308.0421,
      "mean_motion_rev_day": 15.86116362
    },
    {
      "epoch": "2026-04-23T14:15:44.659296Z",
      "apogee_km": 313.1999473042515,
      "perigee_km": 312.38472447396725,
      "latitude_deg": -9.015250304771755e-05,
      "longitude_deg": 127.34107328726569,
      "height_km": 315.6907438028924,
      "semi_major_axis_km": 6690.929335889109,
      "eccentricity": 6.092e-05,
      "inclination_deg": 97.2051,
      "raan_deg": 192.9164,
      "arg_perigee_deg": 45.3791,
      "mean_anomaly_deg": 314.7529,
      "mean_motion_rev_day": 15.8625534
    },
    {
      "epoch": "2026-04-24T09:56:37.617792Z",
      "apogee_km": 312.70325250057795,
      "perigee_km": 312.0663148267722,
      "latitude_deg": -2.6235263058742546e-05,
      "longitude_deg": -167.82178168920706,
      "height_km": 315.44146553369944,
      "semi_major_axis_km": 6690.521783663675,
      "eccentricity": 4.76e-05,
      "inclination_deg": 97.2047,
      "raan_deg": 193.7825,
      "arg_perigee_deg": 66.2488,
      "mean_anomaly_deg": 293.8833,
      "mean_motion_rev_day": 15.86400282
    },
    {
      "epoch": "2026-04-25T19:14:45.467232Z",
      "apogee_km": 311.77884194572744,
      "perigee_km": 311.2383185828412,
      "latitude_deg": -2.7916744151771553e-05,
      "longitude_deg": 52.74043999649685,
      "height_km": 314.4923998699569,
      "semi_major_axis_km": 6689.645580264284,
      "eccentricity": 4.04e-05,
      "inclination_deg": 97.2042,
      "raan_deg": 195.2451,
      "arg_perigee_deg": 41.6957,
      "mean_anomaly_deg": 318.4345,
      "mean_motion_rev_day": 15.8671197
    },
    {
      "epoch": "2026-04-25T19:14:45.468096Z",
      "apogee_km": 311.7789757386381,
      "perigee_km": 311.2381847899296,
      "latitude_deg": -2.9399656563618673e-05,
      "longitude_deg": 52.74043657303796,
      "height_km": 314.49229994005253,
      "semi_major_axis_km": 6689.645580264284,
      "eccentricity": 4.042e-05,
      "inclination_deg": 97.2042,
      "raan_deg": 195.2451,
      "arg_perigee_deg": 41.6957,
      "mean_anomaly_deg": 318.4345,
      "mean_motion_rev_day": 15.8671197
    },
    {
      "epoch": "2026-04-27T09:04:51.854880Z",
      "apogee_km": 312.60756028248215,
      "perigee_km": 308.2332437415662,
      "latitude_deg": 1.5917310538978982e-05,
      "longitude_deg": -154.6849125164321,
      "height_km": 311.5491761010101,
      "semi_major_axis_km": 6688.557402012024,
      "eccentricity": 0.000327,
      "inclination_deg": 97.2004,
      "raan_deg": 196.9002,
      "arg_perigee_deg": 340.2881,
      "mean_anomaly_deg": 19.8264,
      "mean_motion_rev_day": 15.87099205
    },
    {
      "epoch": "2026-04-28T21:23:39.242688Z",
      "apogee_km": 309.86350152373143,
      "perigee_km": 309.02621627499775,
      "latitude_deg": 7.233063289884751e-05,
      "longitude_deg": 20.7341037094974,
      "height_km": 312.37523518266397,
      "semi_major_axis_km": 6687.581858899364,
      "eccentricity": 6.26e-05,
      "inclination_deg": 97.2051,
      "raan_deg": 198.508,
      "arg_perigee_deg": 307.9227,
      "mean_anomaly_deg": 52.1989,
      "mean_motion_rev_day": 15.87446492
    }
  ]
}